{"type": "FeatureCollection", "features": [ {"type": "Feature", "properties": {"norad_id": 34736, "name": "COSMOS 2251 DEB", "group": "cosmos-2251-debris", "lat": -33.61039944418297, "lon": 29.32962311240363, "alt_km": 424.50272288475117, "timestamp": "2025-12-10T20:49:52.947642+00:00", "meta": {"OBJECT_NAME": "COSMOS 2251 DEB", "OBJECT_ID": "1993-036ZE", "EPOCH": "2025-12-10T10:06:25.505856", "MEAN_MOTION": 15.45192633, "ECCENTRICITY": 0.00172568, "INCLINATION": 74.0018, "RA_OF_ASC_NODE": 41.2985, "ARG_OF_PERICENTER": 348.8512, "MEAN_ANOMALY": 11.2313, "EPHEMERIS_TYPE": 0, "CLASSIFICATION_TYPE": "U", "NORAD_CAT_ID": 34736, "ELEMENT_SET_NO": 999, "REV_AT_EPOCH": 88412, "BSTAR": 0.010786336, "MEAN_MOTION_DOT": 0.00552262, "MEAN_MOTION_DDOT": 0}, "tle": {"line1": "1 34736U 93036ZE  25344.42112854  .00552262  00000+0  10786-1 0  9993", "line2": "2 34736  74.0018  41.2985 0017256 348.8512  11.2313 15.45192633884129"}}, "geometry": {"type": "Point", "coordinates": [29.32962311240363, -33.61039944418297]}}, {"type": "Feature", "properties": {"norad_id": 34738, "name": "COSMOS 2251 DEB", "group": "cosmos-2251-debris", "lat": -5.6869292870903925, "lon": -31.599713816487327, "alt_km": 751.1224104036119, "timestamp": "2025-12-10T20:49:52.947652+00:00", "meta": {"OBJECT_NAME": "COSMOS 2251 DEB", "OBJECT_ID": "1993-036ZG", "EPOCH": "2025-12-10T11:57:12.732192", "MEAN_MOTION": 14.46293866, "ECCENTRICITY": 0.00473364, "INCLINATION": 74.0142, "RA_OF_ASC_NODE": 147.4556, "ARG_OF_PERICENTER": 294.1327, "MEAN_ANOMALY": 126.971, "EPHEMERIS_TYPE": 0, "CLASSIFICATION_TYPE": "U", "NORAD_CAT_ID": 34738, "ELEMENT_SET_NO": 999, "REV_AT_EPOCH": 87826, "BSTAR": 0.00050317134, "MEAN_MOTION_DOT": 1.801e-05, "MEAN_MOTION_DDOT": 0}, "tle": {"line1": "1 34738U 93036ZG  25344.49806403  .00001801  00000+0  50317-3 0  9996", "line2": "2 34738  74.0142 147.4556 0047336 294.1327 126.9710 14.46293866878264"}}, "geometry": {"type": "Point", "coordinates": [-31.599713816487327, -5.6869292870903925]}}, {"type": "Feature", "properties": {"norad_id": 34750, "name": "COSMOS 2251 DEB", "group": "cosmos-2251-debris", "lat": -59.4428527871251, "lon": 54.16711952082199, "alt_km": 692.9533027463731, "timestamp": "2025-12-10T20:49:52.947661+00:00", "meta": {"OBJECT_NAME": "COSMOS 2251 DEB", "OBJECT_ID": "1993-036ZU", "EPOCH": "2025-12-09T19:38:52.084032", "MEAN_MOTION": 14.61275497, "ECCENTRICITY": 0.00389919, "INCLINATION": 74.1082, "RA_OF_ASC_NODE": 207.3119, "ARG_OF_PERICENTER": 161.4678, "MEAN_ANOMALY": 323.8218, "EPHEMERIS_TYPE": 0, "CLASSIFICATION_TYPE": "U", "NORAD_CAT_ID": 34750, "ELEMENT_SET_NO": 999, "REV_AT_EPOCH": 88188, "BSTAR": 0.001570725, "MEAN_MOTION_DOT": 7.814e-05, "MEAN_MOTION_DDOT": 0}, "tle": {"line1": "1 34750U 93036ZU  25343.81865838  .00007814  00000+0  15707-2 0  9995", "line2": "2 34750  74.1082 207.3119 0038991 161.4678 323.8218 14.61275497881885"}}, "geometry": {"type": "Point", "coordinates": [54.16711952082199, -59.4428527871251]}}, {"type": "Feature", "properties": {"norad_id": 34752, "name": "COSMOS 2251 DEB", "group": "cosmos-2251-debris", "lat": 52.687510208646174, "lon": 162.31886634471775, "alt_km": 529.3112185706123, "timestamp": "2025-12-10T20:49:52.947671+00:00", "meta": {"OBJECT_NAME": "COSMOS 2251 DEB", "OBJECT_ID": "1993-036ZW", "EPOCH": "2025-12-10T01:04:15.987936", "MEAN_MOTION": 14.99826856, "ECCENTRICITY": 0.00478347, "INCLINATION": 74.0135, "RA_OF_ASC_NODE": 6.0894, "ARG_OF_PERICENTER": 135.411, "MEAN_ANOMALY": 225.0941, "EPHEMERIS_TYPE": 0, "CLASSIFICATION_TYPE": "U", "NORAD_CAT_ID": 34752, "ELEMENT_SET_NO": 999, "REV_AT_EPOCH": 89809, "BSTAR": 0.0012054282, "MEAN_MOTION_DOT": 0.00015282, "MEAN_MOTION_DDOT": 0}, "tle": {"line1": "1 34752U 93036ZW  25344.04462949  .00015282  00000+0  12054-2 0  9999", "line2": "2 34752  74.0135   6.0894 0047834 135.4110 225.0941 14.99826856898096"}}, "geometry": {"type": "Point", "coordinates": [162.31886634471775, 52.687510208646174]}}, {"type": "Feature", "properties": {"norad_id": 34754, "name": "COSMOS 2251 DEB", "group": "cosmos-2251-debris", "lat": 39.79945444963648, "lon": 37.262165463910215, "alt_km": 771.8116499143516, "timestamp": "2025-12-10T20:49:52.947681+00:00", "meta": {"OBJECT_NAME": "COSMOS 2251 DEB", "OBJECT_ID": "1993-036ZY", "EPOCH": "2025-12-10T10:59:41.963712", "MEAN_MOTION": 14.40476594, "ECCENTRICITY": 0.00294753, "INCLINATION": 74.0305, "RA_OF_ASC_NODE": 231.8226, "ARG_OF_PERICENTER": 348.3496, "MEAN_ANOMALY": 185.1534, "EPHEMERIS_TYPE": 0, "CLASSIFICATION_TYPE": "U", "NORAD_CAT_ID": 34754, "ELEMENT_SET_NO": 999, "REV_AT_EPOCH": 88100, "BSTAR": 0.00033455195, "MEAN_MOTION_DOT": 1.043e-05, "MEAN_MOTION_DDOT": 0}, "tle": {"line1": "1 34754U 93036ZY  25344.45812458  .00001043  00000+0  33455-3 0  9999", "line2": "2 34754  74.0305 231.8226 0029475 348.3496 185.1534 14.40476594881000"}}, "geometry": {"type": "Point", "coordinates": [37.262165463910215, 39.79945444963648]}}, {"type": "Feature", "properties": {"norad_id": 34755, "name": "COSMOS 2251 DEB", "group": "cosmos-2251-debris", "lat": 45.66202053023394, "lon": 95.87235932520996, "alt_km": 1369.9610343812974, "timestamp": "2025-12-10T20:49:52.947691+00:00", "meta": {"OBJECT_NAME": "COSMOS 2251 DEB", "OBJECT_ID": "1993-036ZZ", "EPOCH": "2025-12-10T13:38:40.081344", "MEAN_MOTION": 13.50549672, "ECCENTRICITY": 0.04083377, "INCLINATION": 73.9258, "RA_OF_ASC_NODE": 293.5146, "ARG_OF_PERICENTER": 313.7179, "MEAN_ANOMALY": 162.5908, "EPHEMERIS_TYPE": 0, "CLASSIFICATION_TYPE": "U", "NORAD_CAT_ID": 34755, "ELEMENT_SET_NO": 999, "REV_AT_EPOCH": 82494, "BSTAR": 0.0024737493, "MEAN_MOTION_DOT": 2.646e-05, "MEAN_MOTION_DDOT": 0}, "tle": {"line1": "1 34755U 93036ZZ  25344.56851946  .00002646  00000+0  24737-2 0  9999", "line2": "2 34755  73.9258 293.5146 0408337 313.7179 162.5908 13.50549672824946"}}, "geometry": {"type": "Point", "coordinates": [95.87235932520996, 45.66202053023394]}}, {"type": "Feature", "properties": {"norad_id": 34756, "name": "COSMOS 2251 DEB", "group": "cosmos-2251-debris", "lat": -70.10049031198828, "lon": 55.02805821808123, "alt_km": 888.8871028833646, "timestamp": "2025-12-10T20:49:52.947701+00:00", "meta": {"OBJECT_NAME": "COSMOS 2251 DEB", "OBJECT_ID": "1993-036AAA", "EPOCH": "2025-12-08T18:16:00.051744", "MEAN_MOTION": 13.67230677, "ECCENTRICITY": 0.03448148, "INCLINATION": 74.0023, "RA_OF_ASC_NODE": 110.912, "ARG_OF_PERICENTER": 347.5917, "MEAN_ANOMALY": 11.686, "EPHEMERIS_TYPE": 0, "CLASSIFICATION_TYPE": "U", "NORAD_CAT_ID": 34756, "ELEMENT_SET_NO": 999, "REV_AT_EPOCH": 83367, "BSTAR": 0.0014333065, "MEAN_MOTION_DOT": 1.792e-05, "MEAN_MOTION_DDOT": 0}, "tle": {"line1": "1 34756U 93036AAA 25342.76111171  .00001792  00000+0  14333-2 0  9991", "line2": "2 34756  74.0023 110.9120 0344814 347.5917  11.6860 13.67230677833678"}}, "geometry": {"type": "Point", "coordinates": [55.02805821808123, -70.10049031198828]}}, {"type": "Feature", "properties": {"norad_id": 34758, "name": "COSMOS 2251 DEB", "group": "cosmos-2251-debris", "lat": 70.01579579232099, "lon": 70.93681267351712, "alt_km": 802.0159090504703, "timestamp": "2025-12-10T20:49:52.947711+00:00", "meta": {"OBJECT_NAME": "COSMOS 2251 DEB", "OBJECT_ID": "1993-036AAC", "EPOCH": "2025-12-09T21:22:44.685408", "MEAN_MOTION": 13.58054621, "ECCENTRICITY": 0.03810265, "INCLINATION": 74.1074, "RA_OF_ASC_NODE": 304.0817, "ARG_OF_PERICENTER": 68.4859, "MEAN_ANOMALY": 295.6418, "EPHEMERIS_TYPE": 0, "CLASSIFICATION_TYPE": "U", "NORAD_CAT_ID": 34758, "ELEMENT_SET_NO": 999, "REV_AT_EPOCH": 82871, "BSTAR": 0.0016498758, "MEAN_MOTION_DOT": 1.899e-05, "MEAN_MOTION_DDOT": 0}, "tle": {"line1": "1 34758U 93036AAC 25343.89079497  .00001899  00000+0  16499-2 0  9995", "line2": "2 34758  74.1074 304.0817 0381026  68.4859 295.6418 13.58054621828711"}}, "geometry": {"type": "Point", "coordinates": [70.93681267351712, 70.01579579232099]}}, {"type": "Feature", "properties": {"norad_id": 34760, "name": "COSMOS 2251 DEB", "group": "cosmos-2251-debris", "lat": -60.702701385511304, "lon": -84.91308263736259, "alt_km": 801.7615090328345, "timestamp": "2025-12-10T20:49:52.947721+00:00", "meta": {"OBJECT_NAME": "COSMOS 2251 DEB", "OBJECT_ID": "1993-036AAE", "EPOCH": "2025-12-10T15:12:26.349120", "MEAN_MOTION": 14.19560768, "ECCENTRICITY": 0.00966872, "INCLINATION": 74.063, "RA_OF_ASC_NODE": 306.1178, "ARG_OF_PERICENTER": 358.7052, "MEAN_ANOMALY": 180.1619, "EPHEMERIS_TYPE": 0, "CLASSIFICATION_TYPE": "U", "NORAD_CAT_ID": 34760, "ELEMENT_SET_NO": 999, "REV_AT_EPOCH": 86658, "BSTAR": 0.0010055509, "MEAN_MOTION_DOT": 2.198e-05, "MEAN_MOTION_DDOT": 0}, "tle": {"line1": "1 34760U 93036AAE 25344.63363830  .00002198  00000+0  10056-2 0  9994", "line2": "2 34760  74.0630 306.1178 0096687 358.7052 180.1619 14.19560768866580"}}, "geometry": {"type": "Point", "coordinates": [-84.91308263736259, -60.702701385511304]}}, {"type": "Feature", "properties": {"norad_id": 34761, "name": "COSMOS 2251 DEB", "group": "cosmos-2251-debris", "lat": 73.9173443844483, "lon": 102.88059055581924, "alt_km": 741.1624063119361, "timestamp": "2025-12-10T20:49:52.947731+00:00", "meta": {"OBJECT_NAME": "COSMOS 2251 DEB", "OBJECT_ID": "1993-036AAF", "EPOCH": "2025-12-10T12:03:38.570400", "MEAN_MOTION": 14.38036351, "ECCENTRICITY": 0.00363161, "INCLINATION": 74.0295, "RA_OF_ASC_NODE": 6.9142, "ARG_OF_PERICENTER": 41.6621, "MEAN_ANOMALY": 318.7289, "EPHEMERIS_TYPE": 0, "CLASSIFICATION_TYPE": "U", "NORAD_CAT_ID": 34761, "ELEMENT_SET_NO": 999, "REV_AT_EPOCH": 87617, "BSTAR": 0.00085359614, "MEAN_MOTION_DOT": 2.578e-05, "MEAN_MOTION_DDOT": 0}, "tle": {"line1": "1 34761U 93036AAF 25344.50252975  .00002578  00000+0  85360-3 0  9991", "line2": "2 34761  74.0295   6.9142 0036316  41.6621 318.7289 14.38036351876172"}}, "geometry": {"type": "Point", "coordinates": [102.88059055581924, 73.9173443844483]}}]}